ORBCOMM FM115           
1 41186U 15081H   24245.91946424  .00003078  00000+0  65417-3 0  9994
2 41186  46.9995 329.3430 0001302 241.9081 118.1674 14.61133178465591
ORBCOMM FM108           
1 41187U 15081J   24245.81170174  .00003514  00000+0  81103-3 0  9990
2 41187  47.0054  27.7918 0001290  65.7367 294.3653 14.56990534464724
ORBCOMM FM117           
1 41188U 15081K   24245.84642232  .00003367  00000+0  77891-3 0  9998
2 41188  47.0020  26.4867 0001991  84.2926 275.8186 14.56975291464775
ORBCOMM FM116           
1 41189U 15081L   24245.90453841  .00003384  00000+0  78405-3 0  9993
2 41189  47.0008 116.0455 0002263 178.2859 181.8034 14.56882070463592
